GLOBALSTAR M069         
1 31573U 07020C   26178.50296623 -.00000052  00000+0  37660-3 0  9997
2 31573  52.0005 222.9291 0002100 170.7651 330.1583 12.23471613880065
GLOBALSTAR M072         
1 31574U 07020D   26178.47784794 -.00000084  00000+0 -12276-5 0  9999
2 31574  51.9937  72.8490 0001524 357.6329 173.4660 11.91658438876209
GLOBALSTAR M066         
1 32265U 07048C   26178.33668060 -.00000103  00000+0 -75425-4 0  9995
2 32265  51.9601  28.7764 0005633  65.6063 105.5691 12.30387084861478
GLOBALSTAR M079         
1 37188U 10054A   26178.45446712 -.00000102  00000+0  83563-5 0  9997
2 37188  52.0044  77.4150 0000932  46.4091 125.1527 12.62266253723848
GLOBALSTAR M074         
1 37189U 10054B   26178.48117855 -.00000109  00000+0 -31846-4 0  9998
2 37189  52.0014  76.5968 0000727  69.1286 104.1272 12.62261818724457
GLOBALSTAR M076         
1 37190U 10054C   26178.42807277 -.00000109  00000+0 -29466-4 0  9993
2 37190  52.0031  76.9626 0000948  62.3118 109.4046 12.62261909724163
GLOBALSTAR M077         
1 37191U 10054D   26178.21321604 -.00000071  00000+0  12430-3 0  9995
2 37191  51.9926 153.8471 0002571 190.9211 182.0962 11.67547984722317
GLOBALSTAR M075         
1 37192U 10054E   26178.08961024 -.00000112  00000+0 -47673-4 0  9992
2 37192  51.9939 120.0415 0000399  36.5440 336.5239 12.62267415723195
GLOBALSTAR M073         
1 37193U 10054F   26178.56688241 -.00000086  00000+0  98287-4 0  9999
2 37193  52.0075  32.6972 0001071  68.1797 313.1736 12.62266682725245
GLOBALSTAR M083         
1 37739U 11033A   26178.50454909 -.00000082  00000+0  12026-3 0  9991
2 37739  51.9881 341.1011 0000952  84.0452 315.3081 12.62263639694250
GLOBALSTAR M088         
1 37740U 11033B   26178.47279715 -.00000079  00000+0  13858-3 0  9999
2 37740  52.0202 247.6524 0000478 141.7564 231.7145 12.62268976689792
GLOBALSTAR M091         
1 37741U 11033C   26178.51865208 -.00000074  00000+0  16445-3 0  9993
2 37741  51.9968 210.4621 0000044 187.6833 335.1079 12.62264125690589
GLOBALSTAR M085         
1 37742U 11033D   26178.23495769 -.00000099  00000+0  24201-4 0  9991
2 37742  52.0099 162.6251 0000343 357.1152  15.9637 12.62264180691062
GLOBALSTAR M081         
1 37743U 11033E   26178.28133742 -.00000092  00000+0  65281-4 0  9993
2 37743  51.9930 164.9088 0000246  35.6366  68.0144 12.62265274691219
GLOBALSTAR M089         
1 37744U 11033F   26178.14259601 -.00000109  00000+0 -29640-4 0  9991
2 37744  51.9920 119.4879 0000497  78.4915 295.3457 12.62267414692047
GLOBALSTAR M084         
1 38040U 11080A   26178.19045459 -.00000096  00000+0  43480-4 0  9994
2 38040  52.0026 346.8286 0001097 102.1922  69.1514 12.62267649670029
GLOBALSTAR M080         
1 38041U 11080B   26178.24092374 -.00000084  00000+0  10791-3 0  9994
2 38041  52.0084 348.3967 0000421  77.4570  93.4421 12.62269764670151
GLOBALSTAR M082         
1 38042U 11080C   26178.09796858 -.00000101  00000+0  15421-4 0  9992
2 38042  52.0089 304.3343 0000474 106.2239  64.5730 12.62263746670840
GLOBALSTAR M092         
1 38043U 11080D   26178.30955020 -.00000091  00000+0  69362-4 0  9996
2 38043  52.0098  34.0875 0000823  77.7157  94.1440 12.62267146669323
GLOBALSTAR M090         
1 38044U 11080E   26178.50026711 -.00000106  00000+0 -11584-4 0  9996
2 38044  52.0133 297.0687 0000712 103.7936 335.2046 12.62269076671012
GLOBALSTAR M086         
1 38045U 11080F   26178.52244308 -.00000080  00000+0  13423-3 0  9996
2 38045  51.9909 296.9143 0001684  84.9838 356.5373 12.62287246670968
GLOBALSTAR M097         
1 39072U 13005A   26178.37769596 -.00000073  00000+0  16919-3 0  9995
2 39072  52.0016 212.3164 0000135  93.0650 267.0232 12.62271211618190
GLOBALSTAR M093         
1 39073U 13005B   26178.50922030 -.00000079  00000+0  13716-3 0  9993
2 39073  52.0074 205.2656 0000237  38.7335 321.3549 12.62266077618167
GLOBALSTAR M094         
1 39074U 13005C   26178.50908904 -.00000124  00000+0 -11547-3 0  9990
2 39074  51.9947 119.3712 0000669  29.1394 330.9510 12.62268493619777
GLOBALSTAR M096         
1 39075U 13005D   26178.28504281 -.00000100  00000+0  22405-4 0  9995
2 39075  52.0045 168.8632 0000283   1.5364 358.5504 12.62265660618661
GLOBALSTAR M078         
1 39076U 13005E   26178.49566029  .00000037  00000+0  78329-3 0  9990
2 39076  51.9866 252.2194 0000508 274.3158  85.7651 12.62260014617314
GLOBALSTAR M095         
1 39077U 13005F   26178.44319525 -.00000076  00000+0  15703-3 0  9994
2 39077  52.0071 249.9976 0000045  81.6749 278.4123 12.62263641617164
GLOBALSTAR M087         
1 52888U 22064A   26178.29801838 -.00000096  00000+0  45278-4 0  9993
2 52888  52.0010  31.6708 0000893  58.6839 301.4115 12.62269232192412
